[{"OBJECT_NAME":"GEESAT-6 04","OBJECT_ID":"2025-214E","EPOCH":"2026-03-09T23:39:16.844832","MEAN_MOTION":14.829845,"ECCENTRICITY":0.00094543,"INCLINATION":49.9846,"RA_OF_ASC_NODE":47.7418,"ARG_OF_PERICENTER":207.5517,"MEAN_ANOMALY":152.4921,"EPHEMERIS_TYPE":0,"CLASSIFICATION_TYPE":"U","NORAD_CAT_ID":65716,"ELEMENT_SET_NO":999,"REV_AT_EPOCH":2478,"BSTAR":0.00038451427,"MEAN_MOTION_DOT":2.934e-5,"MEAN_MOTION_DDOT":0},{"OBJECT_NAME":"COSMOS 2251 DEB","OBJECT_ID":"1993-036BXZ","EPOCH":"2026-02-23T02:01:24.114432","MEAN_MOTION":14.84285904,"ECCENTRICITY":0.00071366,"INCLINATION":74.0146,"RA_OF_ASC_NODE":329.5947,"ARG_OF_PERICENTER":272.2683,"MEAN_ANOMALY":87.7678,"EPHEMERIS_TYPE":0,"CLASSIFICATION_TYPE":"U","NORAD_CAT_ID":47069,"ELEMENT_SET_NO":999,"REV_AT_EPOCH":73569,"BSTAR":0.0026112493,"MEAN_MOTION_DOT":0.0002194,"MEAN_MOTION_DDOT":0}]
